{"type": "FeatureCollection", "features": [ {"type": "Feature", "properties": {"norad_id": 34077, "name": "IRIDIUM 33 DEB", "group": "iridium-33-debris", "lat": -36.451435378936836, "lon": 52.13663334969902, "alt_km": 685.8360935989122, "timestamp": "2025-12-05T05:43:15.494606+00:00", "meta": {"OBJECT_NAME": "IRIDIUM 33 DEB", "OBJECT_ID": "1997-051CL", "EPOCH": "2025-12-04T17:18:42.892128", "MEAN_MOTION": 14.64636283, "ECCENTRICITY": 0.001086, "INCLINATION": 86.3874, "RA_OF_ASC_NODE": 55.0389, "ARG_OF_PERICENTER": 64.6167, "MEAN_ANOMALY": 54.6109, "EPHEMERIS_TYPE": 0, "CLASSIFICATION_TYPE": "U", "NORAD_CAT_ID": 34077, "ELEMENT_SET_NO": 999, "REV_AT_EPOCH": 88215, "BSTAR": 0.0042105, "MEAN_MOTION_DOT": 0.00022464, "MEAN_MOTION_DDOT": 0}, "tle": {"line1": "1 34077U 97051CL  25338.72132977  .00022464  00000+0  42105-2 0  9993", "line2": "2 34077  86.3874  55.0389 0010860  64.6167  54.6109 14.64636283882156"}}, "geometry": {"type": "Point", "coordinates": [52.13663334969902, -36.451435378936836]}}, {"type": "Feature", "properties": {"norad_id": 34079, "name": "IRIDIUM 33 DEB", "group": "iridium-33-debris", "lat": 6.61615650847699, "lon": -168.34751962759503, "alt_km": 624.9513521797289, "timestamp": "2025-12-05T05:43:15.494616+00:00", "meta": {"OBJECT_NAME": "IRIDIUM 33 DEB", "OBJECT_ID": "1997-051CN", "EPOCH": "2025-12-04T14:55:55.555392", "MEAN_MOTION": 14.83206685, "ECCENTRICITY": 0.0006547, "INCLINATION": 86.3776, "RA_OF_ASC_NODE": 12.3535, "ARG_OF_PERICENTER": 33.0784, "MEAN_ANOMALY": 92.0163, "EPHEMERIS_TYPE": 0, "CLASSIFICATION_TYPE": "U", "NORAD_CAT_ID": 34079, "ELEMENT_SET_NO": 999, "REV_AT_EPOCH": 88857, "BSTAR": 0.0036896, "MEAN_MOTION_DOT": 0.00030258, "MEAN_MOTION_DDOT": 0}, "tle": {"line1": "1 34079U 97051CN  25338.62217078  .00030258  00000+0  36896-2 0  9990", "line2": "2 34079  86.3776  12.3535 0006547  33.0784  92.0163 14.83206685888578"}}, "geometry": {"type": "Point", "coordinates": [-168.34751962759503, 6.61615650847699]}}, {"type": "Feature", "properties": {"norad_id": 34088, "name": "IRIDIUM 33 DEB", "group": "iridium-33-debris", "lat": 55.87494956908434, "lon": 39.521496640555576, "alt_km": 593.1653457686552, "timestamp": "2025-12-05T05:43:15.494627+00:00", "meta": {"OBJECT_NAME": "IRIDIUM 33 DEB", "OBJECT_ID": "1997-051CX", "EPOCH": "2025-12-04T13:54:56.791872", "MEAN_MOTION": 14.90765151, "ECCENTRICITY": 0.0005164, "INCLINATION": 86.3855, "RA_OF_ASC_NODE": 34.4716, "ARG_OF_PERICENTER": 207.2916, "MEAN_ANOMALY": 276.8284, "EPHEMERIS_TYPE": 0, "CLASSIFICATION_TYPE": "U", "NORAD_CAT_ID": 34088, "ELEMENT_SET_NO": 999, "REV_AT_EPOCH": 88620, "BSTAR": 0.0061025, "MEAN_MOTION_DOT": 0.00060443, "MEAN_MOTION_DDOT": 0}, "tle": {"line1": "1 34088U 97051CX  25338.57982398  .00060443  00000+0  61025-2 0  9999", "line2": "2 34088  86.3855  34.4716 0005164 207.2916 276.8284 14.90765151886208"}}, "geometry": {"type": "Point", "coordinates": [39.521496640555576, 55.87494956908434]}}, {"type": "Feature", "properties": {"norad_id": 34091, "name": "IRIDIUM 33 DEB", "group": "iridium-33-debris", "lat": 35.85486141945002, "lon": -112.38206540030585, "alt_km": 646.9513747164046, "timestamp": "2025-12-05T05:43:15.494637+00:00", "meta": {"OBJECT_NAME": "IRIDIUM 33 DEB", "OBJECT_ID": "1997-051DA", "EPOCH": "2025-12-04T12:51:17.264736", "MEAN_MOTION": 14.80833294, "ECCENTRICITY": 0.0032938, "INCLINATION": 86.3424, "RA_OF_ASC_NODE": 70.5888, "ARG_OF_PERICENTER": 322.9542, "MEAN_ANOMALY": 36.9405, "EPHEMERIS_TYPE": 0, "CLASSIFICATION_TYPE": "U", "NORAD_CAT_ID": 34091, "ELEMENT_SET_NO": 999, "REV_AT_EPOCH": 87745, "BSTAR": 0.012051, "MEAN_MOTION_DOT": 0.00095005, "MEAN_MOTION_DDOT": 0}, "tle": {"line1": "1 34091U 97051DA  25338.53561649  .00095005  00000+0  12051-1 0  9997", "line2": "2 34091  86.3424  70.5888 0032938 322.9542  36.9405 14.80833294877454"}}, "geometry": {"type": "Point", "coordinates": [-112.38206540030585, 35.85486141945002]}}, {"type": "Feature", "properties": {"norad_id": 34097, "name": "IRIDIUM 33 DEB", "group": "iridium-33-debris", "lat": -29.961575235389944, "lon": -173.08542068003595, "alt_km": 841.7757046512716, "timestamp": "2025-12-05T05:43:15.494648+00:00", "meta": {"OBJECT_NAME": "IRIDIUM 33 DEB", "OBJECT_ID": "1997-051DG", "EPOCH": "2025-12-04T12:00:30.087072", "MEAN_MOTION": 14.34680478, "ECCENTRICITY": 0.008354, "INCLINATION": 86.2003, "RA_OF_ASC_NODE": 5.0446, "ARG_OF_PERICENTER": 28.9801, "MEAN_ANOMALY": 331.5995, "EPHEMERIS_TYPE": 0, "CLASSIFICATION_TYPE": "U", "NORAD_CAT_ID": 34097, "ELEMENT_SET_NO": 999, "REV_AT_EPOCH": 87001, "BSTAR": 0.0028898, "MEAN_MOTION_DOT": 8.526e-05, "MEAN_MOTION_DDOT": 0}, "tle": {"line1": "1 34097U 97051DG  25338.50034823  .00008526  00000+0  28898-2 0  9998", "line2": "2 34097  86.2003   5.0446 0083540  28.9801 331.5995 14.34680478870017"}}, "geometry": {"type": "Point", "coordinates": [-173.08542068003595, -29.961575235389944]}}, {"type": "Feature", "properties": {"norad_id": 34145, "name": "IRIDIUM 33 DEB", "group": "iridium-33-debris", "lat": -82.22868722826307, "lon": -53.18342628606896, "alt_km": 795.5270285729939, "timestamp": "2025-12-05T05:43:15.494658+00:00", "meta": {"OBJECT_NAME": "IRIDIUM 33 DEB", "OBJECT_ID": "1997-051DY", "EPOCH": "2025-12-04T05:07:56.080128", "MEAN_MOTION": 14.42196317, "ECCENTRICITY": 0.005535, "INCLINATION": 86.211, "RA_OF_ASC_NODE": 336.324, "ARG_OF_PERICENTER": 120.9354, "MEAN_ANOMALY": 239.7303, "EPHEMERIS_TYPE": 0, "CLASSIFICATION_TYPE": "U", "NORAD_CAT_ID": 34145, "ELEMENT_SET_NO": 999, "REV_AT_EPOCH": 87515, "BSTAR": 0.0021467, "MEAN_MOTION_DOT": 7.221e-05, "MEAN_MOTION_DDOT": 0}, "tle": {"line1": "1 34145U 97051DY  25338.21384352  .00007221  00000+0  21467-2 0  9991", "line2": "2 34145  86.2110 336.3240 0055350 120.9354 239.7303 14.42196317875151"}}, "geometry": {"type": "Point", "coordinates": [-53.18342628606896, -82.22868722826307]}}, {"type": "Feature", "properties": {"norad_id": 34146, "name": "IRIDIUM 33 DEB", "group": "iridium-33-debris", "lat": 85.85567672443322, "lon": 109.33585951052326, "alt_km": 737.8844333523684, "timestamp": "2025-12-05T05:43:15.494669+00:00", "meta": {"OBJECT_NAME": "IRIDIUM 33 DEB", "OBJECT_ID": "1997-051DZ", "EPOCH": "2025-12-04T13:18:05.700096", "MEAN_MOTION": 14.48959771, "ECCENTRICITY": 0.0025021, "INCLINATION": 86.2833, "RA_OF_ASC_NODE": 353.417, "ARG_OF_PERICENTER": 250.9245, "MEAN_ANOMALY": 234.6299, "EPHEMERIS_TYPE": 0, "CLASSIFICATION_TYPE": "U", "NORAD_CAT_ID": 34146, "ELEMENT_SET_NO": 999, "REV_AT_EPOCH": 87988, "BSTAR": 0.0021466, "MEAN_MOTION_DOT": 8.185e-05, "MEAN_MOTION_DDOT": 0}, "tle": {"line1": "1 34146U 97051DZ  25338.55423264  .00008185  00000+0  21466-2 0  9994", "line2": "2 34146  86.2833 353.4170 0025021 250.9245 234.6299 14.48959771879880"}}, "geometry": {"type": "Point", "coordinates": [109.33585951052326, 85.85567672443322]}}, {"type": "Feature", "properties": {"norad_id": 34159, "name": "IRIDIUM 33 DEB", "group": "iridium-33-debris", "lat": 86.23345316769988, "lon": 155.71521097253705, "alt_km": 769.7623405180902, "timestamp": "2025-12-05T05:43:15.494679+00:00", "meta": {"OBJECT_NAME": "IRIDIUM 33 DEB", "OBJECT_ID": "1997-051EN", "EPOCH": "2025-12-04T15:56:37.730112", "MEAN_MOTION": 14.38463354, "ECCENTRICITY": 0.0026377, "INCLINATION": 86.3518, "RA_OF_ASC_NODE": 51.6842, "ARG_OF_PERICENTER": 316.2134, "MEAN_ANOMALY": 43.6972, "EPHEMERIS_TYPE": 0, "CLASSIFICATION_TYPE": "U", "NORAD_CAT_ID": 34159, "ELEMENT_SET_NO": 999, "REV_AT_EPOCH": 87843, "BSTAR": 0.00077286, "MEAN_MOTION_DOT": 2.387e-05, "MEAN_MOTION_DDOT": 0}, "tle": {"line1": "1 34159U 97051EN  25338.66432558  .00002387  00000+0  77286-3 0  9996", "line2": "2 34159  86.3518  51.6842 0026377 316.2134  43.6972 14.38463354878438"}}, "geometry": {"type": "Point", "coordinates": [155.71521097253705, 86.23345316769988]}}, {"type": "Feature", "properties": {"norad_id": 34350, "name": "IRIDIUM 33 DEB", "group": "iridium-33-debris", "lat": -66.02732959291221, "lon": -2.241117371121092, "alt_km": 759.2143879093019, "timestamp": "2025-12-05T05:43:15.494690+00:00", "meta": {"OBJECT_NAME": "IRIDIUM 33 DEB", "OBJECT_ID": "1997-051ES", "EPOCH": "2025-12-04T01:54:53.906976", "MEAN_MOTION": 14.45357099, "ECCENTRICITY": 0.00219337, "INCLINATION": 86.3281, "RA_OF_ASC_NODE": 6.5649, "ARG_OF_PERICENTER": 162.4763, "MEAN_ANOMALY": 226.5026, "EPHEMERIS_TYPE": 0, "CLASSIFICATION_TYPE": "U", "NORAD_CAT_ID": 34350, "ELEMENT_SET_NO": 999, "REV_AT_EPOCH": 88168, "BSTAR": 0.00057236591, "MEAN_MOTION_DOT": 2.036e-05, "MEAN_MOTION_DDOT": 0}, "tle": {"line1": "1 34350U 97051ES  25338.07979059  .00002036  00000+0  57237-3 0  9991", "line2": "2 34350  86.3281   6.5649 0021933 162.4763 226.5026 14.45357099881683"}}, "geometry": {"type": "Point", "coordinates": [-2.241117371121092, -66.02732959291221]}}, {"type": "Feature", "properties": {"norad_id": 34366, "name": "IRIDIUM 33 DEB", "group": "iridium-33-debris", "lat": 28.438238293499612, "lon": 54.54512404478737, "alt_km": 722.5168985379851, "timestamp": "2025-12-05T05:43:15.494701+00:00", "meta": {"OBJECT_NAME": "IRIDIUM 33 DEB", "OBJECT_ID": "1997-051FJ", "EPOCH": "2025-12-04T16:58:06.750048", "MEAN_MOTION": 14.53943221, "ECCENTRICITY": 0.0021835, "INCLINATION": 86.3708, "RA_OF_ASC_NODE": 52.8063, "ARG_OF_PERICENTER": 165.4652, "MEAN_ANOMALY": 323.8941, "EPHEMERIS_TYPE": 0, "CLASSIFICATION_TYPE": "U", "NORAD_CAT_ID": 34366, "ELEMENT_SET_NO": 999, "REV_AT_EPOCH": 88065, "BSTAR": 0.0028769, "MEAN_MOTION_DOT": 0.00012178, "MEAN_MOTION_DDOT": 0}, "tle": {"line1": "1 34366U 97051FJ  25338.70702257  .00012178  00000+0  28769-2 0  9997", "line2": "2 34366  86.3708  52.8063 0021835 165.4652 323.8941 14.53943221880659"}}, "geometry": {"type": "Point", "coordinates": [54.54512404478737, 28.438238293499612]}}]}